0 CZ-4 DEB
1 20972U 90081CE  13281.78056809  .00000820  00000-0  34677-3 0  9109
2 20972 098.6280 304.7287 0020226 082.8191 332.8175 14.28090881191097
0 CZ-4 DEB
1 20972U 90081CE  13283.04130105  .00000855  00000-0  36061-3 0  9110
2 20972 098.6279 305.9745 0020154 079.2799 334.2587 14.28095337191275
0 CZ-4 DEB
1 20972U 90081CE  13285.98645411  .00000878  00000-0  37004-3 0  9131
2 20972 098.6272 308.8848 0020006 070.9246 355.4676 14.28100476191696
0 CZ-4 DEB
1 20972U 90081CE  13287.54474668  .00000939  00000-0  39462-3 0  9148
2 20972 098.6269 310.4246 0019904 066.4606 086.8076 14.28103580191911
0 CZ-4 DEB
1 20972U 90081CE  13289.76950001  .00001087  00000-0  45403-3 0  9152
2 20972 098.6265 312.6225 0019790 059.9979 004.6212 14.28110411192238
0 CZ-4 DEB
1 20972U 90081CE  13292.30427693  .00001115  00000-0  46500-3 0  9164
2 20972 098.6265 315.1267 0019650 052.5841 076.4211 14.28115236192599
0 CZ-4 DEB
1 20972U 90081CE  13294.33450505  .00001150  00000-0  47912-3 0  9175
2 20972 098.6265 317.1323 0019548 046.5990 074.3150 14.28120171192883
